{
    "links": {
        "self": "http://www.neowsapp.com/rest/v1/neo/3092406?api_key=iIulBulltgU6a56xZRHN4H3l9WmuAYTsLGpBGhQ2"
    },
    "id": "3092406",
    "neo_reference_id": "3092406",
    "name": "(2001 UU16)",
    "designation": "2001 UU16",
    "nasa_jpl_url": "http://ssd.jpl.nasa.gov/sbdb.cgi?sstr=3092406",
    "absolute_magnitude_h": 24.9,
    "estimated_diameter": {
        "kilometers": {
            "estimated_diameter_min": 0.0278326768,
            "estimated_diameter_max": 0.0622357573
        },
        "meters": {
            "estimated_diameter_min": 27.8326768072,
            "estimated_diameter_max": 62.2357573367
        },
        "miles": {
            "estimated_diameter_min": 0.0172944182,
            "estimated_diameter_max": 0.0386714948
        },
        "feet": {
            "estimated_diameter_min": 91.3145593761,
            "estimated_diameter_max": 204.1855621004
        }
    },
    "is_potentially_hazardous_asteroid": false,
    "close_approach_data": [
        {
            "close_approach_date": "2001-10-26",
            "close_approach_date_full": "2001-Oct-26 05:56",
            "epoch_date_close_approach": 1004075760000,
            "relative_velocity": {
                "kilometers_per_second": "9.3294966963",
                "kilometers_per_hour": "33586.1881066646",
                "miles_per_hour": "20869.1511599439"
            },
            "miss_distance": {
                "astronomical": "0.0312000009",
                "lunar": "12.1368003501",
                "kilometers": "4667453.678638083",
                "miles": "2900221.2308602254"
            },
            "orbiting_body": "Earth"
        },
        {
            "close_approach_date": "2101-09-20",
            "close_approach_date_full": "2101-Sep-20 03:34",
            "epoch_date_close_approach": 4156630440000,
            "relative_velocity": {
                "kilometers_per_second": "20.3881822162",
                "kilometers_per_hour": "73397.4559781738",
                "miles_per_hour": "45606.324799327"
            },
            "miss_distance": {
                "astronomical": "0.4780429902",
                "lunar": "185.9587231878",
                "kilometers": "71514213.102350874",
                "miles": "44436871.4566911012"
            },
            "orbiting_body": "Earth"
        },
        {
            "close_approach_date": "2160-12-28",
            "close_approach_date_full": "2160-Dec-28 00:29",
            "epoch_date_close_approach": 6027092940000,
            "relative_velocity": {
                "kilometers_per_second": "18.2048154339",
                "kilometers_per_hour": "65537.3355619385",
                "miles_per_hour": "40722.3516440278"
            },
            "miss_distance": {
                "astronomical": "0.4663292284",
                "lunar": "181.4020698476",
                "kilometers": "69761859.287383508",
                "miles": "43348009.2872800904"
            },
            "orbiting_body": "Earth"
        }
    ],
    "orbital_data": {
        "orbit_id": "7",
        "orbit_determination_date": "2017-04-06 09:15:56",
        "first_observation_date": "2001-10-24",
        "last_observation_date": "2001-10-26",
        "data_arc_in_days": 2,
        "observations_used": 25,
        "orbit_uncertainty": "7",
        "minimum_orbit_intersection": ".031594",
        "jupiter_tisserand_invariant": "4.033",
        "epoch_osculation": "2459000.5",
        "eccentricity": ".4150132111687891",
        "semi_major_axis": "1.727466865778748",
        "inclination": "13.28764902579803",
        "ascending_node_longitude": "31.38746603490116",
        "orbital_period": "829.3025788180095",
        "perihelion_distance": "1.010545294624226",
        "perihelion_argument": "19.15997806328172",
        "aphelion_distance": "2.44438843693327",
        "perihelion_time": "2458858.792477470995",
        "mean_anomaly": "61.51519290239288",
        "mean_motion": ".434099699187119",
        "equinox": "J2000",
        "orbit_class": {
            "orbit_class_type": "APO",
            "orbit_class_description": "Near-Earth asteroid orbits which cross the Earth’s orbit similar to that of 1862 Apollo",
            "orbit_class_range": "a (semi-major axis) > 1.0 AU; q (perihelion) < 1.017 AU"
        }
    },
    "is_sentry_object": false
}